TRANSPORTER-16 OBJECT CM
1 68499U 26067CM  26105.87140299  .00002153  00000+0  22125-3 0  9996
2 68499  97.7539  65.0981 0000499 140.1447 219.9808 14.91380919  2431
