{
  "norad_id": 68499,
  "name": "TRANSPORTER-16 OBJECT CM",
  "history": [
    {
      "epoch": "2026-04-15T20:54:49.218336Z",
      "apogee_km": 593.9766403640542,
      "perigee_km": 593.2808581422787,
      "latitude_deg": -2.1257759822080217e-05,
      "longitude_deg": -92.63422288270112,
      "height_km": 596.9367131013504,
      "semi_major_axis_km": 6971.765749253166,
      "eccentricity": 4.99e-05,
      "inclination_deg": 97.7539,
      "raan_deg": 65.0981,
      "arg_perigee_deg": 140.1447,
      "mean_anomaly_deg": 219.9808,
      "mean_motion_rev_day": 14.91380919
    }
  ]
}